<?xml version="1.0" encoding="UTF-8" standalone="yes"?>
<!DOCTYPE shakemap-data [
<!ELEMENT shakemap-data (earthquake,stationlist)>
<!ELEMENT stationlist (station+)>
<!ATTLIST stationlist
  created	CDATA	#REQUIRED
>

<!ELEMENT station (comp+)>
<!ATTLIST station
  code		CDATA 			#REQUIRED
  name		CDATA 			#REQUIRED
  insttype	CDATA 			#REQUIRED
  lat		CDATA 			#REQUIRED
  lon		CDATA 			#REQUIRED
  source	(SCSN|CGS|NSMP) 	'SCSN'
  netid		CDATA			#REQUIRED
  commtype	(DIG|ANA) 		'DIG'
  dist          CDATA                   '10.0'
  loc		CDATA			''
>

<!ELEMENT comp (acc,vel,psa*)>
<!ATTLIST comp
  name          CDATA  #REQUIRED
  originalname  CDATA  #IMPLIED
>

<!ELEMENT acc EMPTY>
<!ELEMENT vel EMPTY>
<!ELEMENT psa03 EMPTY>
<!ELEMENT psa10 EMPTY>
<!ELEMENT psa30 EMPTY>
<!ATTLIST acc
  value  CDATA         #REQUIRED
  flag   CDATA        ''
>
<!ATTLIST vel
  value CDATA          #REQUIRED
  flag  CDATA         ''
>
<!ATTLIST psa03
  value CDATA          #REQUIRED
  flag  CDATA         ''
>
<!ATTLIST psa10
  value CDATA          #REQUIRED
  flag  CDATA         ''
>
<!ATTLIST psa30
  value CDATA          #REQUIRED
  flag  CDATA         ''
>
<!ELEMENT  earthquake EMPTY>
<!ATTLIST earthquake
  id 		ID	#REQUIRED
  lat		CDATA	#REQUIRED
  lon		CDATA	#REQUIRED
  mag		CDATA	#REQUIRED
  year          CDATA   #REQUIRED
  month         CDATA   #REQUIRED
  day           CDATA   #REQUIRED
  hour          CDATA   #REQUIRED
  minute        CDATA   #REQUIRED
  second        CDATA   #REQUIRED
  timezone      CDATA   #REQUIRED
  depth		CDATA	#REQUIRED
  type		CDATA	#REQUIRED
  locstring	CDATA	#REQUIRED
  pga		CDATA   #REQUIRED
  pgv		CDATA   #REQUIRED
  sp03		CDATA   #REQUIRED
  sp10		CDATA   #REQUIRED
  sp30		CDATA   #REQUIRED
  created	CDATA	#REQUIRED
>
]>
<shakemap-data code_version="3.5" map_version="1">
<earthquake id="bmg2010attp" lat="-7.74" lon="107.29" mag="6.20" year="2010" month="01" day="19" hour="06" minute="38" second="56" timezone="GMT" depth="14" network="" locstring="97 km Barat Daya Bandung JAWA Barat" created="1371223319" />
<stationlist created="1371223319">
<station code="Cianjur" name="Cianjur jabar" insttype="BMKG (dimana amerasakan gempa)" lat="-8.32" lon="106.60" dist="96.599865" source="BMG (dimana merasakan gempa)" netid="CIIM" commtype="BMKG (melalui telepon)" loc="" intensity="5.4">
<comp name="DERIVED">
<acc value="7.57" flag="0" />
<vel value="7.29" flag="0" />
<psa03 value="18.99" flag="0" />
<psa10 value="9.49" flag="0" />
<psa30 value="2.08" flag="0" />
</comp>
</station>
<station code="Bandung" name="Bandung jabar" insttype="BMKG (dimana amerasakan gempa)" lat="-6.92" lon="107.60" dist="94.346064" source="BMG (dimana merasakan gempa)" netid="CIIM" commtype="BMKG (melalui telepon)" loc="" intensity="6.4">
<comp name="DERIVED">
<acc value="14.19" flag="0" />
<vel value="15.10" flag="T" />
<psa03 value="33.22" flag="0" />
<psa10 value="20.90" flag="T" />
<psa30 value="4.46" flag="T" />
</comp>
</station>

</stationlist>
</shakemap-data>
